[{"OBJECT_NAME":"STARLINK-5800","OBJECT_ID":"2023-042BH","EPOCH":"2026-03-09T04:07:52.121856","MEAN_MOTION":15.02540416,"ECCENTRICITY":0.00017639,"INCLINATION":43.0063,"RA_OF_ASC_NODE":32.748,"ARG_OF_PERICENTER":270.3709,"MEAN_ANOMALY":89.6932,"EPHEMERIS_TYPE":0,"CLASSIFICATION_TYPE":"U","NORAD_CAT_ID":56041,"ELEMENT_SET_NO":999,"REV_AT_EPOCH":16313,"BSTAR":7.0951711e-5,"MEAN_MOTION_DOT":7.55e-6,"MEAN_MOTION_DDOT":0},{"OBJECT_NAME":"CZ-6A DEB","OBJECT_ID":"2024-140ADS","EPOCH":"2026-03-09T14:05:09.302208","MEAN_MOTION":15.17885306,"ECCENTRICITY":0.0073653,"INCLINATION":89.0442,"RA_OF_ASC_NODE":281.8925,"ARG_OF_PERICENTER":121.24,"MEAN_ANOMALY":239.6089,"EPHEMERIS_TYPE":0,"CLASSIFICATION_TYPE":"U","NORAD_CAT_ID":64628,"ELEMENT_SET_NO":999,"REV_AT_EPOCH":8034,"BSTAR":0.0029018,"MEAN_MOTION_DOT":0.00063537,"MEAN_MOTION_DDOT":0}]
